NORAD_CAT_ID,OBJECT_NAME,OBJECT_TYPE,EPOCH,MEAN_MOTION,ECCENTRICITY,INCLINATION,RA_OF_ASC_NODE,ARG_OF_PERICENTER,MEAN_ANOMALY,BSTAR,MEAN_MOTION_DOT,MEAN_MOTION_DDOT,TLE_LINE0,TLE_LINE1,TLE_LINE2,SEMIMAJOR_AXIS,PERIOD,APOGEE,PERIGEE,DECAYED
52647.0,STARLINK-3846,PAYLOAD,2024-03-30 13:12:29,15.08834225,0.0001744,53.2212,202.6776,90.4706,269.6486,7.0279e-06,-1.76e-06,0.0,0 STARLINK-3846,1 52647U 22052BB  24090.55034302 -.00000176  00000-0  70279-5 0  9997,2 52647  53.2212 202.6776 0001744  90.4706 269.6486 15.08834225104085,6917.898,95.438,540.97,538.557,0.0
52647.0,STARLINK-3846,PAYLOAD,2024-03-31 00:20:10,15.08851545,0.0001173,53.2176,200.5917,73.3511,286.761,0.0002252,3.299e-05,0.0,0 STARLINK-3846,1 52647U 22052BB  24091.01401278  .00003299  00000-0  22520-3 0  9991,2 52647  53.2176 200.5917 0001173  73.3511 286.7610 15.08851545104520,6917.845,95.437,540.522,538.899,0.0
52647.0,STARLINK-3846,PAYLOAD,2024-03-31 13:03:16,15.0883358,0.0001454,53.2169,198.2174,89.1768,270.9391,2.3781e-05,9e-07,0.0,0 STARLINK-3846,1 52647U 22052BB  24091.54394343  .00000090  00000-0  23781-4 0  9990,2 52647  53.2169 198.2174 0001454  89.1768 270.9391 15.08833580104600,6917.9,95.438,540.771,538.759,0.0
52647.0,STARLINK-3846,PAYLOAD,2024-03-31 14:38:39,15.08834689,0.0001553,53.2178,197.9189,89.6637,270.4534,5.176e-05,5.36e-06,0.0,0 STARLINK-3846,1 52647U 22052BB  24091.61018299  .00000536  00000-0  51760-4 0  9994,2 52647  53.2178 197.9189 0001553  89.6637 270.4534 15.08834689104247,6917.897,95.438,540.836,538.687,0.0
52647.0,STARLINK-3846,PAYLOAD,2024-03-31 16:14:02,15.08844271,0.0001422,53.2166,197.6214,101.4567,258.6585,0.00017382,2.48e-05,0.0,0 STARLINK-3846,1 52647U 22052BB  24091.67641790  .00002480  00000-0  17382-3 0  9999,2 52647  53.2166 197.6214 0001422 101.4567 258.6585 15.08844271104624,6917.867,95.437,540.716,538.749,0.0
52647.0,STARLINK-3846,PAYLOAD,2024-04-01 12:54:04,15.08828891,0.0001143,53.2161,193.7565,87.4044,272.7079,1.6158e-05,-3.1e-07,0.0,0 STARLINK-3846,1 52647U 22052BB  24092.53754753 -.00000031  00000-0  16158-4 0  9991,2 52647  53.2161 193.7565 0001143  87.4044 272.7079 15.08828891104757,6917.914,95.438,540.57,538.989,0.0
52647.0,STARLINK-3846,PAYLOAD,2024-04-01 16:04:49,15.08840504,0.0001238,53.2154,193.1598,92.4554,267.658,0.00014321,1.992e-05,0.0,0 STARLINK-3846,1 52647U 22052BB  24092.67002202  .00001992  00000-0  14321-3 0  9996,2 52647  53.2154 193.1598 0001238  92.4554 267.6580 15.08840504104773,6917.879,95.438,540.6,538.887,0.0
52647.0,STARLINK-3846,PAYLOAD,2024-04-02 12:44:50,15.08839831,0.0001645,53.2166,189.2935,102.0383,258.0794,0.00018261,2.619e-05,0.0,0 STARLINK-3846,1 52647U 22052BB  24093.53114484  .00002619  00000-0  18261-3 0  9992,2 52647  53.2166 189.2935 0001645 102.0383 258.0794 15.08839831104533,6917.881,95.438,540.884,538.608,0.0
52647.0,STARLINK-3846,PAYLOAD,2024-04-03 12:35:37,15.08846499,0.0001212,53.2155,184.8352,92.355,267.758,0.00029963,4.485e-05,0.0,0 STARLINK-3846,1 52647U 22052BB  24094.52474233  .00004485  00000-0  29963-3 0  9997,2 52647  53.2155 184.8352 0001212  92.3550 267.7580 15.08846499104686,6917.861,95.437,540.564,538.887,0.0
52647.0,STARLINK-3846,PAYLOAD,2024-04-03 15:46:23,15.08851849,0.0001327,53.2164,184.2404,91.3489,268.7655,0.00034453,5.201e-05,0.0,0 STARLINK-3846,1 52647U 22052BB  24094.65722007  .00005201  00000-0  34453-3 0  9993,2 52647  53.2164 184.2404 0001327  91.3489 268.7655 15.08851849105078,6917.844,95.437,540.627,538.791,0.0
52647.0,STARLINK-3846,PAYLOAD,2024-04-04 12:26:24,15.08840679,0.0001241,53.216,180.3717,96.057,264.0563,1.8552e-05,7e-08,0.0,0 STARLINK-3846,1 52647U 22052BB  24095.51834229  .00000007  00000-0  18552-4 0  9991,2 52647  53.2160 180.3717 0001241  96.0570 264.0563 15.08840679105207,6917.878,95.438,540.602,538.885,0.0
52647.0,STARLINK-3846,PAYLOAD,2024-04-05 12:17:11,15.08849589,0.0001224,53.2171,175.915,99.1374,260.9757,0.00011899,1.607e-05,0.0,0 STARLINK-3846,1 52647U 22052BB  24096.51193438  .00001607  00000-0  11899-3 0  9995,2 52647  53.2171 175.9150 0001224  99.1374 260.9757 15.08849589105352,6917.851,95.437,540.563,538.869,0.0
52647.0,STARLINK-3846,PAYLOAD,2024-04-06 12:07:59,15.08834523,0.0001323,53.2167,171.4512,88.0171,272.0972,7.9584e-05,9.79e-06,0.0,0 STARLINK-3846,1 52647U 22052BB  24097.50554477  .00000979  00000-0  79584-4 0  9996,2 52647  53.2167 171.4512 0001323  88.0171 272.0972 15.08834523105504,6917.897,95.438,540.677,538.847,0.0
52647.0,STARLINK-3846,PAYLOAD,2024-04-06 21:40:17,15.08837328,0.000142,53.2164,169.6677,87.2436,272.8719,-4.9975e-06,-3.67e-06,0.0,0 STARLINK-3846,1 52647U 22052BB  24097.90298121 -.00000367  00000-0 -49975-5 0  9996,2 52647  53.2164 169.6677 0001420  87.2436 272.8719 15.08837328105193,6917.889,95.438,540.736,538.771,0.0
52647.0,STARLINK-3846,PAYLOAD,2024-04-07 13:34:09,15.08839163,0.0002154,53.2166,166.6942,92.7253,267.3985,3.9541e-05,3.41e-06,0.0,0 STARLINK-3846,1 52647U 22052BB  24098.56538458  .00000341  00000-0  39541-4 0  9996,2 52647  53.2166 166.6942 0002154  92.7253 267.3985 15.08839163105294,6917.883,95.438,541.238,538.258,0.0
52647.0,STARLINK-3846,PAYLOAD,2024-04-07 15:09:31,15.08867347,0.0002272,53.2163,166.3968,71.025,289.0988,0.00045118,6.905e-05,0.0,0 STARLINK-3846,1 52647U 22052BB  24098.63161106  .00006905  00000-0  45118-3 0  9994,2 52647  53.2163 166.3968 0002272  71.0250 289.0988 15.08867347105675,6917.797,95.436,541.234,538.09,0.0
52647.0,STARLINK-3846,PAYLOAD,2024-04-07 21:31:02,15.08876536,0.0001614,53.2133,165.2074,85.4517,274.6659,0.0005694,8.795e-05,0.0,0 STARLINK-3846,1 52647U 22052BB  24098.89656056  .00008795  00000-0  56940-3 0  9999,2 52647  53.2133 165.2074 0001614  85.4517 274.6659 15.08876536105341,6917.769,95.435,540.75,538.517,0.0
52647.0,STARLINK-3846,PAYLOAD,2024-04-08 10:14:10,15.08822148,0.0002092,53.2188,162.8311,100.6646,259.4581,-8.9925e-05,-1.718e-05,0.0,0 STARLINK-3846,1 52647U 22052BB  24099.42651051 -.00001718  00000-0 -89925-4 0  9999,2 52647  53.2188 162.8311 0002092 100.6646 259.4581 15.08822148105796,6917.935,95.439,541.247,538.353,0.0
52647.0,STARLINK-3846,PAYLOAD,2024-04-08 21:21:52,15.0882998,0.0002362,53.2174,160.748,96.7134,263.4127,1.2807e-05,-8.5e-07,0.0,0 STARLINK-3846,1 52647U 22052BB  24099.89019092 -.00000085  00000-0  12807-4 0  9993,2 52647  53.2174 160.7480 0002362  96.7134 263.4127 15.08829980105491,6917.911,95.438,541.41,538.142,0.0
52647.0,STARLINK-3846,PAYLOAD,2024-04-09 03:43:24,15.08834948,0.0002463,53.2176,159.558,96.3115,263.8158,4.1768e-05,3.76e-06,0.0,0 STARLINK-3846,1 52647U 22052BB  24100.15515003  .00000376  00000-0  41768-4 0  9998,2 52647  53.2176 159.5580 0002463  96.3115 263.8158 15.08834948105901,6917.896,95.438,541.465,538.057,0.0
52647.0,STARLINK-3846,PAYLOAD,2024-04-09 10:04:57,15.08842078,0.0002225,53.215,158.3688,98.9847,261.1397,0.00015354,2.156e-05,0.0,0 STARLINK-3846,1 52647U 22052BB  24100.42010655  .00002156  00000-0  15354-3 0  9990,2 52647  53.2150 158.3688 0002225  98.9847 261.1397 15.08842078105577,6917.874,95.437,541.278,538.2,0.0
52647.0,STARLINK-3846,PAYLOAD,2024-04-09 21:12:38,15.08852459,0.0001823,53.215,156.2873,107.8232,252.2959,0.00020211,2.931e-05,0.0,0 STARLINK-3846,1 52647U 22052BB  24100.88378033  .00002931  00000-0  20211-3 0  9996,2 52647  53.2150 156.2873 0001823 107.8232 252.2959 15.08852459105648,6917.842,95.437,540.968,538.446,0.0
52647.0,STARLINK-3846,PAYLOAD,2024-04-10 09:55:44,15.08838736,0.000191,53.2145,153.9083,102.9367,257.1839,0.00028097,4.186e-05,0.0,0 STARLINK-3846,1 52647U 22052BB  24101.41370848  .00004186  00000-0  28097-3 0  9996,2 52647  53.2145 153.9083 0001910 102.9367 257.1839 15.08838736106094,6917.884,95.438,541.071,538.428,0.0
52647.0,STARLINK-3846,PAYLOAD,2024-04-10 21:03:26,15.08844938,0.0001883,53.2148,151.8265,103.3339,256.7864,0.00025313,3.743e-05,0.0,0 STARLINK-3846,1 52647U 22052BB  24101.87738581  .00003743  00000-0  25313-3 0  9994,2 52647  53.2148 151.8265 0001883 103.3339 256.7864 15.08844938105799,6917.865,95.437,541.033,538.428,0.0
52647.0,STARLINK-3846,PAYLOAD,2024-04-11 09:46:31,15.08839588,0.0002109,53.2161,149.4462,107.6493,252.473,2.4932e-05,1.09e-06,0.0,0 STARLINK-3846,1 52647U 22052BB  24102.40730798  .00000109  00000-0  24932-4 0  9996,2 52647  53.2161 149.4462 0002109 107.6493 252.4730 15.08839588105875,6917.882,95.438,541.206,538.288,0.0
52647.0,STARLINK-3846,PAYLOAD,2024-04-12 09:37:18,15.08834351,0.0002025,53.218,144.9866,107.9802,252.1411,3.3537e-05,2.46e-06,0.0,0 STARLINK-3846,1 52647U 22052BB  24103.40091306  .00000246  00000-0  33537-4 0  9995,2 52647  53.2180 144.9866 0002025 107.9802 252.1411 15.08834351106392,6917.898,95.438,541.164,538.362,0.0
52647.0,STARLINK-3846,PAYLOAD,2024-04-13 07:52:42,15.08834897,0.0001891,53.2174,140.8236,103.6765,256.4438,8.8387e-05,1.119e-05,0.0,0 STARLINK-3846,1 52647U 22052BB  24104.32827478  .00001119  00000-0  88387-4 0  9997,2 52647  53.2174 140.8236 0001891 103.6765 256.4438 15.08834897106168,6917.896,95.438,541.069,538.453,0.0
52647.0,STARLINK-3846,PAYLOAD,2024-04-14 07:43:29,15.08839476,0.0001719,53.2166,136.3622,93.6304,266.4884,0.00014461,2.014e-05,0.0,0 STARLINK-3846,1 52647U 22052BB  24105.32187408  .00002014  00000-0  14461-3 0  9996,2 52647  53.2166 136.3622 0001719  93.6304 266.4884 15.08839476106685,6917.882,95.438,540.936,538.558,0.0
52647.0,STARLINK-3846,PAYLOAD,2024-04-15 09:09:39,15.0884429,0.0001682,53.2157,131.6063,86.5226,273.5958,0.00012844,1.757e-05,0.0,0 STARLINK-3846,1 52647U 22052BB  24106.38171173  .00001757  00000-0  12844-3 0  9991,2 52647  53.2157 131.6063 0001682  86.5226 273.5958 15.08844290106844,6917.867,95.437,540.896,538.569,0.0
52647.0,STARLINK-3846,PAYLOAD,2024-04-15 18:41:58,15.08852132,0.0001756,53.2162,129.8205,80.671,279.4481,0.00020801,3.025e-05,0.0,0 STARLINK-3846,1 52647U 22052BB  24106.77914689  .00003025  00000-0  20801-3 0  9993,2 52647  53.2162 129.8205 0001756  80.6710 279.4481 15.08852132106538,6917.843,95.437,540.923,538.494,0.0
